[{"OBJECT_NAME":"FENGYUN 1C DEB","OBJECT_ID":"1999-025DQX","EPOCH":"2026-04-22T16:34:00.754464","MEAN_MOTION":13.69641714,"ECCENTRICITY":0.02242072,"INCLINATION":99.2823,"RA_OF_ASC_NODE":273.5985,"ARG_OF_PERICENTER":29.8746,"MEAN_ANOMALY":331.4983,"EPHEMERIS_TYPE":0,"CLASSIFICATION_TYPE":"U","NORAD_CAT_ID":35239,"ELEMENT_SET_NO":999,"REV_AT_EPOCH":59923,"BSTAR":0.0005629214,"MEAN_MOTION_DOT":5.44e-6,"MEAN_MOTION_DDOT":0},{"OBJECT_NAME":"FENGYUN 1C DEB","OBJECT_ID":"1999-025DQY","EPOCH":"2026-04-25T20:43:29.181216","MEAN_MOTION":14.24490006,"ECCENTRICITY":0.00469402,"INCLINATION":99.3567,"RA_OF_ASC_NODE":91.7917,"ARG_OF_PERICENTER":130.2568,"MEAN_ANOMALY":230.2729,"EPHEMERIS_TYPE":0,"CLASSIFICATION_TYPE":"U","NORAD_CAT_ID":35240,"ELEMENT_SET_NO":999,"REV_AT_EPOCH":95073,"BSTAR":0.0014543153,"MEAN_MOTION_DOT":3.362e-5,"MEAN_MOTION_DDOT":0},{"OBJECT_NAME":"FENGYUN 1C DEB","OBJECT_ID":"1999-025DQZ","EPOCH":"2026-04-25T17:37:25.762944","MEAN_MOTION":14.02632237,"ECCENTRICITY":0.01355099,"INCLINATION":98.6347,"RA_OF_ASC_NODE":42.8261,"ARG_OF_PERICENTER":191.8547,"MEAN_ANOMALY":167.942,"EPHEMERIS_TYPE":0,"CLASSIFICATION_TYPE":"U","NORAD_CAT_ID":35241,"ELEMENT_SET_NO":999,"REV_AT_EPOCH":89484,"BSTAR":0.0010283554,"MEAN_MOTION_DOT":1.679e-5,"MEAN_MOTION_DDOT":0},{"OBJECT_NAME":"FENGYUN 1C DEB","OBJECT_ID":"1999-025DRA","EPOCH":"2026-04-25T15:33:25.478784","MEAN_MOTION":13.52669384,"ECCENTRICITY":0.0302474,"INCLINATION":99.9623,"RA_OF_ASC_NODE":173.9925,"ARG_OF_PERICENTER":215.8898,"MEAN_ANOMALY":299.6234,"EPHEMERIS_TYPE":0,"CLASSIFICATION_TYPE":"U","NORAD_CAT_ID":35242,"ELEMENT_SET_NO":999,"REV_AT_EPOCH":59937,"BSTAR":0.0024029291,"MEAN_MOTION_DOT":2.082e-5,"MEAN_MOTION_DDOT":0},{"OBJECT_NAME":"FENGYUN 1C DEB","OBJECT_ID":"1999-025DRB","EPOCH":"2026-04-26T12:32:17.691072","MEAN_MOTION":14.93333442,"ECCENTRICITY":0.005892,"INCLINATION":98.8694,"RA_OF_ASC_NODE":216.8944,"ARG_OF_PERICENTER":183.5916,"MEAN_ANOMALY":176.4885,"EPHEMERIS_TYPE":0,"CLASSIFICATION_TYPE":"U","NORAD_CAT_ID":35243,"ELEMENT_SET_NO":999,"REV_AT_EPOCH":93008,"BSTAR":0.0024847,"MEAN_MOTION_DOT":0.00026963,"MEAN_MOTION_DDOT":0},{"OBJECT_NAME":"FENGYUN 1C DEB","OBJECT_ID":"1999-025DRC","EPOCH":"2026-04-25T01:43:05.579904","MEAN_MOTION":14.06893363,"ECCENTRICITY":0.00723422,"INCLINATION":98.8216,"RA_OF_ASC_NODE":157.1647,"ARG_OF_PERICENTER":142.6219,"MEAN_ANOMALY":218.0013,"EPHEMERIS_TYPE":0,"CLASSIFICATION_TYPE":"U","NORAD_CAT_ID":35244,"ELEMENT_SET_NO":999,"REV_AT_EPOCH":67696,"BSTAR":0.00029620641,"MEAN_MOTION_DOT":4.63e-6,"MEAN_MOTION_DDOT":0},{"OBJECT_NAME":"FENGYUN 1C DEB","OBJECT_ID":"1999-025DRD","EPOCH":"2026-04-26T05:22:51.456288","MEAN_MOTION":14.13986015,"ECCENTRICITY":0.0057399,"INCLINATION":99.0759,"RA_OF_ASC_NODE":208.7685,"ARG_OF_PERICENTER":250.2827,"MEAN_ANOMALY":137.4869,"EPHEMERIS_TYPE":0,"CLASSIFICATION_TYPE":"U","NORAD_CAT_ID":35245,"ELEMENT_SET_NO":999,"REV_AT_EPOCH":89677,"BSTAR":0.0014692,"MEAN_MOTION_DOT":2.789e-5,"MEAN_MOTION_DDOT":0},{"OBJECT_NAME":"FENGYUN 1C DEB","OBJECT_ID":"1999-025DRU","EPOCH":"2026-04-10T21:20:52.602144","MEAN_MOTION":13.46912969,"ECCENTRICITY":0.04375195,"INCLINATION":98.5103,"RA_OF_ASC_NODE":156.7771,"ARG_OF_PERICENTER":316.9305,"MEAN_ANOMALY":39.8353,"EPHEMERIS_TYPE":0,"CLASSIFICATION_TYPE":"U","NORAD_CAT_ID":36147,"ELEMENT_SET_NO":999,"REV_AT_EPOCH":61601,"BSTAR":0.00084790008,"MEAN_MOTION_DOT":8.84e-6,"MEAN_MOTION_DDOT":0},{"OBJECT_NAME":"FENGYUN 1C DEB","OBJECT_ID":"1999-025DRV","EPOCH":"2026-04-24T19:22:51.050784","MEAN_MOTION":13.86285157,"ECCENTRICITY":0.0278223,"INCLINATION":98.4216,"RA_OF_ASC_NODE":317.4566,"ARG_OF_PERICENTER":345.0106,"MEAN_ANOMALY":14.2928,"EPHEMERIS_TYPE":0,"CLASSIFICATION_TYPE":"U","NORAD_CAT_ID":36148,"ELEMENT_SET_NO":999,"REV_AT_EPOCH":92087,"BSTAR":0.0015292,"MEAN_MOTION_DOT":2.357e-5,"MEAN_MOTION_DDOT":0},{"OBJECT_NAME":"FENGYUN 1C DEB","OBJECT_ID":"1999-025DRZ","EPOCH":"2026-04-24T09:32:52.356480","MEAN_MOTION":14.17844262,"ECCENTRICITY":0.00554042,"INCLINATION":98.7417,"RA_OF_ASC_NODE":157.1925,"ARG_OF_PERICENTER":190.4259,"MEAN_ANOMALY":169.5772,"EPHEMERIS_TYPE":0,"CLASSIFICATION_TYPE":"U","NORAD_CAT_ID":36152,"ELEMENT_SET_NO":999,"REV_AT_EPOCH":66036,"BSTAR":0.00065281344,"MEAN_MOTION_DOT":1.31e-5,"MEAN_MOTION_DDOT":0},{"OBJECT_NAME":"FENGYUN 1C DEB","OBJECT_ID":"1999-025DSA","EPOCH":"2026-04-16T12:42:06.519168","MEAN_MOTION":14.51837219,"ECCENTRICITY":0.00302506,"INCLINATION":98.5906,"RA_OF_ASC_NODE":204.2916,"ARG_OF_PERICENTER":33.5467,"MEAN_ANOMALY":326.7635,"EPHEMERIS_TYPE":0,"CLASSIFICATION_TYPE":"U","NORAD_CAT_ID":36153,"ELEMENT_SET_NO":999,"REV_AT_EPOCH":66773,"BSTAR":0.00072731584,"MEAN_MOTION_DOT":2.898e-5,"MEAN_MOTION_DDOT":0},{"OBJECT_NAME":"FENGYUN 1C DEB","OBJECT_ID":"1999-025DSH","EPOCH":"2026-04-08T06:28:17.898240","MEAN_MOTION":14.13352099,"ECCENTRICITY":0.01348073,"INCLINATION":98.1377,"RA_OF_ASC_NODE":294.4698,"ARG_OF_PERICENTER":174.9695,"MEAN_ANOMALY":185.2871,"EPHEMERIS_TYPE":0,"CLASSIFICATION_TYPE":"U","NORAD_CAT_ID":36160,"ELEMENT_SET_NO":999,"REV_AT_EPOCH":61698,"BSTAR":0.00026280993,"MEAN_MOTION_DOT":5.0e-6,"MEAN_MOTION_DDOT":0},{"OBJECT_NAME":"FENGYUN 1C DEB","OBJECT_ID":"1999-025DSL","EPOCH":"2026-04-25T08:32:37.550688","MEAN_MOTION":14.64146925,"ECCENTRICITY":0.00373771,"INCLINATION":99.0823,"RA_OF_ASC_NODE":337.468,"ARG_OF_PERICENTER":29.7691,"MEAN_ANOMALY":330.5624,"EPHEMERIS_TYPE":0,"CLASSIFICATION_TYPE":"U","NORAD_CAT_ID":36163,"ELEMENT_SET_NO":999,"REV_AT_EPOCH":91139,"BSTAR":0.0026468484,"MEAN_MOTION_DOT":0.00014026,"MEAN_MOTION_DDOT":0},{"OBJECT_NAME":"FENGYUN 1C DEB","OBJECT_ID":"1999-025DSQ","EPOCH":"2026-04-26T12:13:34.886784","MEAN_MOTION":14.50371764,"ECCENTRICITY":0.0067634,"INCLINATION":98.813,"RA_OF_ASC_NODE":34.7927,"ARG_OF_PERICENTER":196.6419,"MEAN_ANOMALY":163.2555,"EPHEMERIS_TYPE":0,"CLASSIFICATION_TYPE":"U","NORAD_CAT_ID":36167,"ELEMENT_SET_NO":999,"REV_AT_EPOCH":69232,"BSTAR":0.00068436,"MEAN_MOTION_DOT":2.699e-5,"MEAN_MOTION_DDOT":0},{"OBJECT_NAME":"FENGYUN 1C DEB","OBJECT_ID":"1999-025DSW","EPOCH":"2026-04-25T14:08:25.355040","MEAN_MOTION":14.25430846,"ECCENTRICITY":0.01469542,"INCLINATION":98.2337,"RA_OF_ASC_NODE":69.4183,"ARG_OF_PERICENTER":150.6681,"MEAN_ANOMALY":210.2851,"EPHEMERIS_TYPE":0,"CLASSIFICATION_TYPE":"U","NORAD_CAT_ID":36173,"ELEMENT_SET_NO":999,"REV_AT_EPOCH":60997,"BSTAR":0.00018141176,"MEAN_MOTION_DOT":4.39e-6,"MEAN_MOTION_DDOT":0},{"OBJECT_NAME":"FENGYUN 1C DEB","OBJECT_ID":"1999-025DTD","EPOCH":"2026-04-26T10:14:39.115104","MEAN_MOTION":14.21148651,"ECCENTRICITY":0.0209422,"INCLINATION":98.4342,"RA_OF_ASC_NODE":179.2426,"ARG_OF_PERICENTER":359.2406,"MEAN_ANOMALY":0.8425,"EPHEMERIS_TYPE":0,"CLASSIFICATION_TYPE":"U","NORAD_CAT_ID":36180,"ELEMENT_SET_NO":999,"REV_AT_EPOCH":72496,"BSTAR":0.0003575,"MEAN_MOTION_DOT":9.25e-6,"MEAN_MOTION_DDOT":0}]
