FENGYUN 1C DEB          
1 35239U 99025DQX 26112.69028651  .00000544  00000+0  56292-3 0  9995
2 35239  99.2823 273.5985 0224207  29.8746 331.4983 13.69641714599230
FENGYUN 1C DEB          
1 35240U 99025DQY 26115.86353219  .00003362  00000+0  14543-2 0  9993
2 35240  99.3567  91.7917 0046940 130.2568 230.2729 14.24490006950736
FENGYUN 1C DEB          
1 35241U 99025DQZ 26115.73432596  .00001679  00000+0  10284-2 0  9993
2 35241  98.6347  42.8261 0135509 191.8547 167.9420 14.02632237894847
FENGYUN 1C DEB          
1 35242U 99025DRA 26115.64821156  .00002082  00000+0  24029-2 0  9999
2 35242  99.9623 173.9925 0302474 215.8898 299.6234 13.52669384599378
FENGYUN 1C DEB          
1 35243U 99025DRB 26116.52242698  .00026963  00000+0  24847-2 0  9998
2 35243  98.8694 216.8944 0058920 183.5916 176.4885 14.93333442930089
FENGYUN 1C DEB          
1 35244U 99025DRC 26115.07159236  .00000463  00000+0  29621-3 0  9996
2 35244  98.8216 157.1647 0072342 142.6219 218.0013 14.06893363676960
FENGYUN 1C DEB          
1 35245U 99025DRD 26116.22420667  .00002789  00000+0  14692-2 0  9998
2 35245  99.0759 208.7685 0057399 250.2827 137.4869 14.13986015896778
FENGYUN 1C DEB          
1 36147U 99025DRU 26100.88949771  .00000884  00000+0  84790-3 0  9998
2 36147  98.5103 156.7771 0437519 316.9305  39.8353 13.46912969616014
FENGYUN 1C DEB          
1 36148U 99025DRV 26114.80753531  .00002357  00000+0  15292-2 0  9990
2 36148  98.4216 317.4566 0278223 345.0106  14.2928 13.86285157920877
FENGYUN 1C DEB          
1 36152U 99025DRZ 26114.39782820  .00001310  00000+0  65281-3 0  9994
2 36152  98.7417 157.1925 0055404 190.4259 169.5772 14.17844262660360
FENGYUN 1C DEB          
1 36153U 99025DSA 26106.52924212  .00002898  00000+0  72732-3 0  9995
2 36153  98.5906 204.2916 0030250  33.5467 326.7635 14.51837219667731
FENGYUN 1C DEB          
1 36160U 99025DSH 26098.26965160  .00000500  00000+0  26281-3 0  9997
2 36160  98.1377 294.4698 0134807 174.9695 185.2871 14.13352099616988
FENGYUN 1C DEB          
1 36163U 99025DSL 26115.35599017  .00014026  00000+0  26468-2 0  9998
2 36163  99.0823 337.4680 0037377  29.7691 330.5624 14.64146925911392
FENGYUN 1C DEB          
1 36167U 99025DSQ 26116.50943156  .00002699  00000+0  68436-3 0  9992
2 36167  98.8130  34.7927 0067634 196.6419 163.2555 14.50371764692325
FENGYUN 1C DEB          
1 36173U 99025DSW 26115.58918235  .00000439  00000+0  18141-3 0  9994
2 36173  98.2337  69.4183 0146954 150.6681 210.2851 14.25430846609978
FENGYUN 1C DEB          
1 36180U 99025DTD 26116.42684161  .00000925  00000+0  35750-3 0  9999
2 36180  98.4342 179.2426 0209422 359.2406   0.8425 14.21148651724969
